{
  "type": "FeatureCollection",
  "generator": "overpass-turbo",
  "copyright": "The data included in this document is from www.openstreetmap.org. The data is made available under ODbL.",
  "timestamp": "2026-03-17T14:52:00Z",
  "features": [
    {
      "type": "Feature",
      "properties": {
        "@id": "way/887859764",
        "addr:city": "Federal Capital Territory",
        "addr:postcode": "900108",
        "addr:street": "298X+834, Abuja",
        "id": "block_c",
        "building": "yes",
        "building:levels": "3",
        "name": "Nile House"
      },
      "geometry": {
        "type": "Polygon",
        "coordinates": [
          [
            [
              7.3977913,
              9.0154745
            ],
            [
              7.3976974,
              9.0160692
            ],
            [
              7.3972263,
              9.0159967
            ],
            [
              7.3972507,
              9.015842
            ],
            [
              7.3975589,
              9.0158895
            ],
            [
              7.3976025,
              9.0156136
            ],
            [
              7.3972923,
              9.0155659
            ],
            [
              7.3973182,
              9.0154017
            ],
            [
              7.3977913,
              9.0154745
            ]
          ]
        ]
      },
      "id": "way/887859764"
    },
    {
      "type": "Feature",
      "properties": {
        "@id": "way/887859775",
        "addr:city": "Abuja",
        "addr:postcode": "900108",
        "addr:street": "297W+FFC, Abuja 900108, Federal Capital Territory",
        "building": "yes",
        "id": "block_b",
        "name": "Volta"
      },
      "geometry": {
        "type": "Polygon",
        "coordinates": [
          [
            [
              7.3959998,
              9.0134977
            ],
            [
              7.3960697,
              9.0135531
            ],
            [
              7.3962507,
              9.0133306
            ],
            [
              7.3962401,
              9.0133222
            ],
            [
              7.3962901,
              9.0132607
            ],
            [
              7.3964094,
              9.0133553
            ],
            [
              7.3962222,
              9.0135854
            ],
            [
              7.3962324,
              9.0136862
            ],
            [
              7.3960612,
              9.0138966
            ],
            [
              7.3960052,
              9.0138522
            ],
            [
              7.3958605,
              9.0140301
            ],
            [
              7.395682,
              9.0138885
            ],
            [
              7.3959998,
              9.0134977
            ]
          ]
        ]
      },
      "id": "way/887859775"
    },
    {
      "type": "Feature",
      "properties": {
        "@id": "way/887859789",
        "addr:city": "Abuja",
        "addr:postcode": "900108",
        "addr:street": "Plot 681, Cadastral Zone C-OO, Research & Institution Area, Jabi Airport Bypass, Abuja FCT",
        "building": "yes",
        "id": "block_a",
        "building:levels": "3",
        "name": "Niger House"
      },
      "geometry": {
        "type": "Polygon",
        "coordinates": [
          [
            [
              7.3970789,
              9.0137196
            ],
            [
              7.3975198,
              9.0140407
            ],
            [
              7.3973956,
              9.0142001
            ],
            [
              7.3974323,
              9.0142372
            ],
            [
              7.3970778,
              9.0146785
            ],
            [
              7.3968889,
              9.0145316
            ],
            [
              7.3972573,
              9.0140915
            ],
            [
              7.3969611,
              9.013875
            ],
            [
              7.3970789,
              9.0137196
            ]
          ]
        ]
      },
      "id": "way/887859789"
    },
    {
      "type": "Feature",
      "properties": {
        "@id": "way/1458243830",
        "id": "block_f",
        "building": "yes",
        "building:levels": "3",
        "name": "Ubangi"
      },
      "geometry": {
        "type": "Polygon",
        "coordinates": [
          [
            [
              7.3952331,
              9.016408
            ],
            [
              7.3953169,
              9.0160209
            ],
            [
              7.3958507,
              9.016129
            ],
            [
              7.3962831,
              9.0162279
            ],
            [
              7.3961993,
              9.0165954
            ],
            [
              7.3952331,
              9.016408
            ]
          ]
        ]
      },
      "id": "way/1458243830"
    },
    {
      "type": "Feature",
      "properties": {
        "@id": "way/1458243831",
        "id": "block_e",
        "building": "yes",
        "building:levels": "3",
        "name": "Congo House"
      },
      "geometry": {
        "type": "Polygon",
        "coordinates": [
          [
            [
              7.394007,
              9.0160843
            ],
            [
              7.3940593,
              9.0158131
            ],
            [
              7.3943526,
              9.0158721
            ],
            [
              7.3943395,
              9.0159284
            ],
            [
              7.39453,
              9.0159681
            ],
            [
              7.3945543,
              9.0158703
            ],
            [
              7.3947262,
              9.0158998
            ],
            [
              7.3947019,
              9.0160031
            ],
            [
              7.3949475,
              9.0160585
            ],
            [
              7.3949671,
              9.015992
            ],
            [
              7.3951483,
              9.0160345
            ],
            [
              7.3950848,
              9.0163278
            ],
            [
              7.3948962,
              9.0162891
            ],
            [
              7.3949036,
              9.016254
            ],
            [
              7.3946197,
              9.0161968
            ],
            [
              7.3946029,
              9.0162688
            ],
            [
              7.3944609,
              9.0162429
            ],
            [
              7.3944796,
              9.016171
            ],
            [
              7.394007,
              9.0160843
            ]
          ]
        ]
      },
      "id": "way/1458243831"
    },
    {
      "type": "Feature",
      "properties": {
        "@id": "way/1458243832",
        "id": "block_d",
        "building": "yes",
        "building:levels": "3",
        "name": "Limpopo Bay"
      },
      "geometry": {
        "type": "Polygon",
        "coordinates": [
          [
            [
              7.3950612,
              9.0146309
            ],
            [
              7.3951363,
              9.0145482
            ],
            [
              7.3950912,
              9.0145079
            ],
            [
              7.395162,
              9.0144232
            ],
            [
              7.3952228,
              9.0144716
            ],
            [
              7.3953058,
              9.0143766
            ],
            [
              7.39525,
              9.0143214
            ],
            [
              7.3952982,
              9.0142636
            ],
            [
              7.3953423,
              9.014296
            ],
            [
              7.39543,
              9.0142016
            ],
            [
              7.3955338,
              9.0142846
            ],
            [
              7.3956212,
              9.0141752
            ],
            [
              7.3958153,
              9.0143239
            ],
            [
              7.3956883,
              9.0144807
            ],
            [
              7.3956191,
              9.0144274
            ],
            [
              7.3955418,
              9.0145228
            ],
            [
              7.3955998,
              9.01458
            ],
            [
              7.3954818,
              9.0147093
            ],
            [
              7.3954187,
              9.0146502
            ],
            [
              7.3953187,
              9.0147623
            ],
            [
              7.3953916,
              9.0148216
            ],
            [
              7.3952736,
              9.0149636
            ],
            [
              7.3950833,
              9.0148143
            ],
            [
              7.3951697,
              9.0147081
            ],
            [
              7.3950612,
              9.0146309
            ]
          ]
        ]
      },
      "id": "way/1458243832"
    }
  ]
}